trial,trial_type,site,date,time,chick,nest,tarsus,mass,age,sex,setup,maze_area,donour_id,donour_sex,odour_type,odour_date,odour_trial_diffdate,odours_diffdate,odour_used,scoring_order,trial_success,out_time,delay,first_side,duration
29B,B,Lamboara South-East beach,11/05/2022,14,FJ02542,-316,22.60,10.62,13,NA,1,right,FJ02541,NA,p,11/05/2022,0,0,1,49,1,410.352,411.587,1,97.232
29B,B,Lamboara South-East beach,11/05/2022,14,FJ02542,-316,22.60,10.62,13,NA,1,middle,NA,NA,NA,NA,NA,NA,NA,49,1,410.352,NA,NA,59.108
29B,B,Lamboara South-East beach,11/05/2022,14,FJ02542,-316,22.60,10.62,13,NA,1,chamber,NA,NA,NA,NA,NA,NA,NA,49,1,410.352,NA,NA,629.631
30A,A,Lamboara South-East beach,11/05/2022,16,FJ02545,-317,22.55,12.20,13,NA,2,left,FJ02541,NA,np,11/05/2022,0,NA,2,59,0,NA,NA,NA,0
30A,A,Lamboara South-East beach,11/05/2022,16,FJ02545,-317,22.55,12.20,13,NA,2,right,NA,NA,c,NA,NA,NA,NA,59,0,NA,NA,NA,0
30A,A,Lamboara South-East beach,11/05/2022,16,FJ02545,-317,22.55,12.20,13,NA,2,middle,NA,NA,NA,NA,NA,NA,NA,59,0,NA,NA,NA,0
30A,A,Lamboara South-East beach,11/05/2022,16,FJ02545,-317,22.55,12.20,13,NA,2,chamber,NA,NA,NA,NA,NA,NA,NA,59,0,NA,NA,NA,900
30B,B,Lamboara South-East beach,11/05/2022,16,FJ02545,-317,22.55,12.20,13,NA,2,left,FJ02543,NA,p,11/05/2022,0,0,1,65,1,555.711,561.501,0,30.873
30B,B,Lamboara South-East beach,11/05/2022,16,FJ02545,-317,22.55,12.20,13,NA,2,right,FJ02539,NA,np,11/05/2022,0,0,1,65,1,555.711,558.748,1,5.031
30B,B,Lamboara South-East beach,11/05/2022,16,FJ02545,-317,22.55,12.20,13,NA,2,middle,NA,NA,NA,NA,NA,NA,NA,65,1,555.711,NA,NA,7.119
30B,B,Lamboara South-East beach,11/05/2022,16,FJ02545,-317,22.55,12.20,13,NA,2,chamber,NA,NA,NA,NA,NA,NA,NA,65,1,555.711,NA,NA,856.977
31A,A,Lamboara South-East beach,12/05/2022,11,FJ02547,-318,20.80,7.82,8,NA,3,left,NA,NA,c,NA,NA,NA,NA,58,0,307.621,313.128,1,124.397
31A,A,Lamboara South-East beach,12/05/2022,11,FJ02547,-318,20.80,7.82,8,NA,3,right,FJ02541,NA,np,11/05/2022,1,NA,3,58,0,307.621,322.624,0,82.127
31A,A,Lamboara South-East beach,12/05/2022,11,FJ02547,-318,20.80,7.82,8,NA,3,middle,NA,NA,NA,NA,NA,NA,NA,58,0,307.621,NA,NA,136.836
31A,A,Lamboara South-East beach,12/05/2022,11,FJ02547,-318,20.80,7.82,8,NA,3,chamber,NA,NA,NA,NA,NA,NA,NA,58,0,307.621,NA,NA,556.64
31B,B,Lamboara South-East beach,12/05/2022,11,FJ02547,-318,20.80,7.82,8,NA,3,left,FJ02543,NA,np,11/05/2022,1,1,2,53,1,441.396,469.404,1,31.332
31B,B,Lamboara South-East beach,12/05/2022,11,FJ02547,-318,20.80,7.82,8,NA,3,right,FJ02546,NA,p,12/05/2022,0,1,1,53,1,441.396,470.355,0,153.881
31B,B,Lamboara South-East beach,12/05/2022,11,FJ02547,-318,20.80,7.82,8,NA,3,middle,NA,NA,NA,NA,NA,NA,NA,53,1,441.396,NA,NA,76.527
31B,B,Lamboara South-East beach,12/05/2022,11,FJ02547,-318,20.80,7.82,8,NA,3,chamber,NA,NA,NA,NA,NA,NA,NA,53,1,441.396,NA,NA,638.26
32A,A,Lamboara SIV,16/05/2022,12,FJ02549,302,18.12,4.73,1,NA,3,left,NA,NA,c,NA,NA,NA,NA,75,0,NA,NA,NA,0
32A,A,Lamboara SIV,16/05/2022,12,FJ02549,302,18.12,4.73,1,NA,3,right,FJ02543,NA,np,11/05/2022,5,NA,3,75,0,NA,NA,NA,0
32A,A,Lamboara SIV,16/05/2022,12,FJ02549,302,18.12,4.73,1,NA,3,middle,NA,NA,NA,NA,NA,NA,NA,75,0,NA,NA,NA,0
32A,A,Lamboara SIV,16/05/2022,12,FJ02549,302,18.12,4.73,1,NA,3,chamber,NA,NA,NA,NA,NA,NA,NA,75,0,NA,NA,NA,900
32B,B,Lamboara SIV,16/05/2022,12,FJ02549,302,18.12,4.73,1,NA,3,left,FJ02546,NA,np,12/05/2022,4,4,2,42,0,NA,NA,NA,0
32B,B,Lamboara SIV,16/05/2022,12,FJ02549,302,18.12,4.73,1,NA,3,right,FJ02548,NA,p,16/05/2022,0,4,1,42,0,NA,NA,NA,0
32B,B,Lamboara SIV,16/05/2022,12,FJ02549,302,18.12,4.73,1,NA,3,middle,NA,NA,NA,NA,NA,NA,NA,42,0,NA,NA,NA,0
32B,B,Lamboara SIV,16/05/2022,12,FJ02549,302,18.12,4.73,1,NA,3,chamber,NA,NA,NA,NA,NA,NA,NA,42,0,NA,NA,NA,900
33A,A,Lamboara SIV,16/05/2022,14,FJ02550,302,17.29,4.66,1,NA,3,left,NA,NA,c,NA,NA,NA,NA,62,1,19.463,22.501,1,174.901
33A,A,Lamboara SIV,16/05/2022,14,FJ02550,302,17.29,4.66,1,NA,3,right,FJ02546,NA,np,12/05/2022,4,NA,3,62,1,19.463,69.974,0,187.141
33A,A,Lamboara SIV,16/05/2022,14,FJ02550,302,17.29,4.66,1,NA,3,middle,NA,NA,NA,NA,NA,NA,NA,62,1,19.463,NA,NA,291.28
33A,A,Lamboara SIV,16/05/2022,14,FJ02550,302,17.29,4.66,1,NA,3,chamber,NA,NA,NA,NA,NA,NA,NA,62,1,19.463,NA,NA,246.678
33B,B,Lamboara SIV,16/05/2022,14,FJ02550,302,17.29,4.66,1,NA,3,left,FJ02543,NA,np,11/05/2022,5,5,4,20,1,0.475,1.426,1,126.678
33B,B,Lamboara SIV,16/05/2022,14,FJ02550,302,17.29,4.66,1,NA,3,right,FJ02548,NA,p,16/05/2022,0,5,2,20,1,0.475,15.095,0,307.536
33B,B,Lamboara SIV,16/05/2022,14,FJ02550,302,17.29,4.66,1,NA,3,middle,NA,NA,NA,NA,NA,NA,NA,20,1,0.475,NA,NA,190.643
33B,B,Lamboara SIV,16/05/2022,14,FJ02550,302,17.29,4.66,1,NA,3,chamber,NA,NA,NA,NA,NA,NA,NA,20,1,0.475,NA,NA,275.143
34A,A,Lamboara West Beach,19/05/2022,12,FJ02553,-320,19.22,5.56,3,NA,2,left,FJ02546,NA,np,12/05/2022,7,NA,4,72,1,111.843,250.747,0,63.46
34A,A,Lamboara West Beach,19/05/2022,12,FJ02553,-320,19.22,5.56,3,NA,2,right,NA,NA,c,NA,NA,NA,NA,72,1,111.843,116.97,1,307.717
34A,A,Lamboara West Beach,19/05/2022,12,FJ02553,-320,19.22,5.56,3,NA,2,middle,NA,NA,NA,NA,NA,NA,NA,72,1,111.843,NA,NA,171.18
34A,A,Lamboara West Beach,19/05/2022,12,FJ02553,-320,19.22,5.56,3,NA,2,chamber,NA,NA,NA,NA,NA,NA,NA,72,1,111.843,NA,NA,357.643
34B,B,Lamboara West Beach,19/05/2022,12,FJ02553,-320,19.22,5.56,3,NA,2,left,FJ02552,NA,p,19/05/2022,0,3,1,63,1,27.818,29.528,1,219.13
34B,B,Lamboara West Beach,19/05/2022,12,FJ02553,-320,19.22,5.56,3,NA,2,right,FJ02548,NA,np,16/05/2022,3,3,3,63,1,27.818,42.915,0,298.612
34B,B,Lamboara West Beach,19/05/2022,12,FJ02553,-320,19.22,5.56,3,NA,2,middle,NA,NA,NA,NA,NA,NA,NA,63,1,27.818,NA,NA,194.359
34B,B,Lamboara West Beach,19/05/2022,12,FJ02553,-320,19.22,5.56,3,NA,2,chamber,NA,NA,NA,NA,NA,NA,NA,63,1,27.818,NA,NA,187.899
35A,A,Lamboara West Beach,19/05/2022,13,FJ02554,-320,18.95,5.00,3,NA,3,left,NA,NA,c,NA,NA,NA,NA,31,1,4.938,26.245,0,51.667
35A,A,Lamboara West Beach,19/05/2022,13,FJ02554,-320,18.95,5.00,3,NA,3,right,FJ02548,NA,np,16/05/2022,3,NA,4,31,1,4.938,7.309,1,303.04
35A,A,Lamboara West Beach,19/05/2022,13,FJ02554,-320,18.95,5.00,3,NA,3,middle,NA,NA,NA,NA,NA,NA,NA,31,1,4.938,NA,NA,85.403
35A,A,Lamboara West Beach,19/05/2022,13,FJ02554,-320,18.95,5.00,3,NA,3,chamber,NA,NA,NA,NA,NA,NA,NA,31,1,4.938,NA,NA,459.89
35B,B,Lamboara West Beach,19/05/2022,13,FJ02554,-320,18.95,5.00,3,NA,3,left,FJ02543,NA,np,11/05/2022,8,8,4,36,1,425.922,666.797,0,9.78
35B,B,Lamboara West Beach,19/05/2022,13,FJ02554,-320,18.95,5.00,3,NA,3,right,FJ02552,NA,p,19/05/2022,0,8,2,36,1,425.922,539.476,1,106.148
35B,B,Lamboara West Beach,19/05/2022,13,FJ02554,-320,18.95,5.00,3,NA,3,middle,NA,NA,NA,NA,NA,NA,NA,36,1,425.922,NA,NA,86.309
35B,B,Lamboara West Beach,19/05/2022,13,FJ02554,-320,18.95,5.00,3,NA,3,chamber,NA,NA,NA,NA,NA,NA,NA,36,1,425.922,NA,NA,697.763
36A,A,Lamboara West Beach,19/05/2022,16,FJ02557,-321,19.08,5.45,3,NA,4,left,NA,NA,c,NA,NA,NA,NA,8,1,25.92,27.154,1,111.931
36A,A,Lamboara West Beach,19/05/2022,16,FJ02557,-321,19.08,5.45,3,NA,4,right,FJ02548,NA,np,16/05/2022,3,NA,5,8,1,25.92,86.019,0,319.608
36A,A,Lamboara West Beach,19/05/2022,16,FJ02557,-321,19.08,5.45,3,NA,4,middle,NA,NA,NA,NA,NA,NA,NA,8,1,25.92,NA,NA,161.517
36A,A,Lamboara West Beach,19/05/2022,16,FJ02557,-321,19.08,5.45,3,NA,4,chamber,NA,NA,NA,NA,NA,NA,NA,8,1,25.92,NA,NA,306.944
36B,B,Lamboara West Beach,19/05/2022,16,FJ02557,-321,19.08,5.45,3,NA,4,left,FJ02555,NA,p,19/05/2022,0,0,1,6,1,0.095,0.475,1,115.568
36B,B,Lamboara West Beach,19/05/2022,16,FJ02557,-321,19.08,5.45,3,NA,4,right,FJ02552,NA,np,19/05/2022,0,0,3,6,1,0.095,2.468,0,414.727
36B,B,Lamboara West Beach,19/05/2022,16,FJ02557,-321,19.08,5.45,3,NA,4,middle,NA,NA,NA,NA,NA,NA,NA,6,1,0.095,NA,NA,353.661
36B,B,Lamboara West Beach,19/05/2022,16,FJ02557,-321,19.08,5.45,3,NA,4,chamber,NA,NA,NA,NA,NA,NA,NA,6,1,0.095,NA,NA,16.044
37A,A,Lamboara West Beach,19/05/2022,17,FJ02558,-321,19.33,5.61,4,NA,3,left,NA,NA,c,NA,NA,NA,NA,41,1,5.504,6.644,1,103.541
37A,A,Lamboara West Beach,19/05/2022,17,FJ02558,-321,19.33,5.61,4,NA,3,right,FJ02552,NA,np,19/05/2022,0,NA,4,41,1,5.504,15.189,0,79.849
37A,A,Lamboara West Beach,19/05/2022,17,FJ02558,-321,19.33,5.61,4,NA,3,middle,NA,NA,NA,NA,NA,NA,NA,41,1,5.504,NA,NA,75.756
37A,A,Lamboara West Beach,19/05/2022,17,FJ02558,-321,19.33,5.61,4,NA,3,chamber,NA,NA,NA,NA,NA,NA,NA,41,1,5.504,NA,NA,640.854
37B,B,Lamboara West Beach,19/05/2022,17,FJ02558,-321,19.33,5.61,4,NA,3,left,FJ02548,NA,np,16/05/2022,3,3,6,23,1,42.82,222.932,0,51.652
37B,B,Lamboara West Beach,19/05/2022,17,FJ02558,-321,19.33,5.61,4,NA,3,right,FJ02556,NA,p,19/05/2022,0,3,1,23,1,42.82,43.485,1,158.292
37B,B,Lamboara West Beach,19/05/2022,17,FJ02558,-321,19.33,5.61,4,NA,3,middle,NA,NA,NA,NA,NA,NA,NA,23,1,42.82,NA,NA,259.687
37B,B,Lamboara West Beach,19/05/2022,17,FJ02558,-321,19.33,5.61,4,NA,3,chamber,NA,NA,NA,NA,NA,NA,NA,23,1,42.82,NA,NA,430.369
38A,A,West Mamelo / South Ampisirona,23/05/2022,12,FJ02561,-322,24.15,15.48,17,NA,2,left,FJ02555,NA,np,19/05/2022,4,NA,2,14,0,NA,NA,NA,0
38A,A,West Mamelo / South Ampisirona,23/05/2022,12,FJ02561,-322,24.15,15.48,17,NA,2,right,NA,NA,c,NA,NA,NA,NA,14,0,NA,NA,NA,0
38A,A,West Mamelo / South Ampisirona,23/05/2022,12,FJ02561,-322,24.15,15.48,17,NA,2,middle,NA,NA,NA,NA,NA,NA,NA,14,0,NA,NA,NA,0
38A,A,West Mamelo / South Ampisirona,23/05/2022,12,FJ02561,-322,24.15,15.48,17,NA,2,chamber,NA,NA,NA,NA,NA,NA,NA,14,0,NA,NA,NA,900
38B,B,West Mamelo / South Ampisirona,23/05/2022,12,FJ02561,-322,24.15,15.48,17,NA,2,left,FJ02560,NA,p,23/05/2022,0,4,1,25,0,NA,NA,NA,0
38B,B,West Mamelo / South Ampisirona,23/05/2022,12,FJ02561,-322,24.15,15.48,17,NA,2,right,FJ02556,NA,np,19/05/2022,4,4,2,25,0,NA,NA,NA,0
38B,B,West Mamelo / South Ampisirona,23/05/2022,12,FJ02561,-322,24.15,15.48,17,NA,2,middle,NA,NA,NA,NA,NA,NA,NA,25,0,NA,NA,NA,0
38B,B,West Mamelo / South Ampisirona,23/05/2022,12,FJ02561,-322,24.15,15.48,17,NA,2,chamber,NA,NA,NA,NA,NA,NA,NA,25,0,NA,NA,NA,900
